[{"OBJECT_NAME":"STARLINK-4144","OBJECT_ID":"2022-086R","EPOCH":"2026-03-09T14:44:04.925760","MEAN_MOTION":15.0884349,"ECCENTRICITY":0.0001162,"INCLINATION":53.2167,"RA_OF_ASC_NODE":194.4603,"ARG_OF_PERICENTER":98.4624,"MEAN_ANOMALY":261.65,"EPHEMERIS_TYPE":0,"CLASSIFICATION_TYPE":"U","NORAD_CAT_ID":53257,"ELEMENT_SET_NO":999,"REV_AT_EPOCH":20105,"BSTAR":-1.3508e-5,"MEAN_MOTION_DOT":-5.03e-6,"MEAN_MOTION_DDOT":0},{"OBJECT_NAME":"YUNYAO-1 47","OBJECT_ID":"2025-059E","EPOCH":"2026-03-09T22:46:15.708288","MEAN_MOTION":15.10508558,"ECCENTRICITY":0.00172664,"INCLINATION":97.6066,"RA_OF_ASC_NODE":250.9227,"ARG_OF_PERICENTER":135.6694,"MEAN_ANOMALY":224.5922,"EPHEMERIS_TYPE":0,"CLASSIFICATION_TYPE":"U","NORAD_CAT_ID":63348,"ELEMENT_SET_NO":999,"REV_AT_EPOCH":5331,"BSTAR":0.00029014568,"MEAN_MOTION_DOT":4.732e-5,"MEAN_MOTION_DDOT":0}]
